NORAD_CAT_ID,OBJECT_NAME,OBJECT_TYPE,EPOCH,MEAN_MOTION,ECCENTRICITY,INCLINATION,RA_OF_ASC_NODE,ARG_OF_PERICENTER,MEAN_ANOMALY,BSTAR,MEAN_MOTION_DOT,MEAN_MOTION_DDOT,TLE_LINE0,TLE_LINE1,TLE_LINE2,SEMIMAJOR_AXIS,PERIOD,APOGEE,PERIGEE,DECAYED
52585.0,STARLINK-3906,PAYLOAD,2024-03-25 17:22:32,15.0884597,0.0001512,53.2157,84.1974,91.5251,268.5915,0.00018915,2.724e-05,0.0,0 STARLINK-3906,1 52585U 22051BB  24085.72399036  .00002724  00000-0  18915-3 0  9995,2 52585  53.2157  84.1974 0001512  91.5251 268.5915 15.08845970103800,6917.862,95.437,540.773,538.681,0.0
52585.0,STARLINK-3906,PAYLOAD,2024-03-26 04:30:15,15.08834924,0.0001924,53.2152,82.1145,100.3325,259.7885,4.1542e-05,3.73e-06,0.0,0 STARLINK-3906,1 52585U 22051BB  24086.18767862  .00000373  00000-0  41542-4 0  9993,2 52585  53.2152  82.1145 0001924 100.3325 259.7885 15.08834924103941,6917.896,95.438,541.092,538.43,0.0
52585.0,STARLINK-3906,PAYLOAD,2024-03-26 09:16:24,15.08836414,0.0001629,53.216,81.2215,104.4248,255.6925,-1.2909e-05,-4.93e-06,0.0,0 STARLINK-3906,1 52585U 22051BB  24086.38639789 -.00000493  00000-0 -12909-4 0  9991,2 52585  53.2160  81.2215 0001629 104.4248 255.6925 15.08836414103901,6917.891,95.438,540.883,538.629,0.0
52585.0,STARLINK-3906,PAYLOAD,2024-03-26 17:13:20,15.08832642,0.000179,53.2185,79.7331,105.7744,254.3446,8.0843e-05,9.99e-06,0.0,0 STARLINK-3906,1 52585U 22051BB  24086.71760238  .00000999  00000-0  80843-4 0  9993,2 52585  53.2185  79.7331 0001790 105.7744 254.3446 15.08832642103951,6917.903,95.438,541.006,538.53,0.0
52585.0,STARLINK-3906,PAYLOAD,2024-03-27 05:56:26,15.0882061,0.0001171,53.2169,77.3574,94.9159,265.1967,0.00010468,1.378e-05,0.0,0 STARLINK-3906,1 52585U 22051BB  24087.24753223  .00001378  00000-0  10468-3 0  9995,2 52585  53.2169  77.3574 0001171  94.9159 265.1967 15.08820610104106,6917.94,95.439,540.615,538.995,0.0
52585.0,STARLINK-3906,PAYLOAD,2024-03-27 09:07:12,15.08826915,0.0001455,53.2173,76.7618,110.002,250.1129,3.5613e-05,2.79e-06,0.0,0 STARLINK-3906,1 52585U 22051BB  24087.38001153  .00000279  00000-0  35613-4 0  9997,2 52585  53.2173  76.7618 0001455 110.0020 250.1129 15.08826915104057,6917.92,95.438,540.792,538.779,0.0
52585.0,STARLINK-3906,PAYLOAD,2024-03-28 05:47:11,15.08852073,0.000154,53.2179,72.8945,106.1785,253.9376,0.00032014,4.812e-05,0.0,0 STARLINK-3906,1 52585U 22051BB  24088.24111010  .00004812  00000-0  32014-3 0  9995,2 52585  53.2179  72.8945 0001540 106.1785 253.9376 15.08852073104253,6917.843,95.437,540.774,538.643,0.0
52585.0,STARLINK-3906,PAYLOAD,2024-03-28 08:57:58,15.0885408,0.0001413,53.2173,72.2994,108.7539,251.3607,0.00029879,4.472e-05,0.0,0 STARLINK-3906,1 52585U 22051BB  24088.37358837  .00004472  00000-0  29879-3 0  9996,2 52585  53.2173  72.2994 0001413 108.7539 251.3607 15.08854080104203,6917.837,95.437,540.68,538.725,0.0
52585.0,STARLINK-3906,PAYLOAD,2024-03-28 23:16:27,15.08844411,0.0001395,53.2171,69.6246,99.8106,260.3043,0.00016757,2.38e-05,0.0,0 STARLINK-3906,1 52585U 22051BB  24088.96975738  .00002380  00000-0  16757-3 0  9993,2 52585  53.2171  69.6246 0001395  99.8106 260.3043 15.08844411104290,6917.867,95.437,540.697,538.767,0.0
52585.0,STARLINK-3906,PAYLOAD,2024-03-29 05:37:59,15.08837628,0.0001202,53.2171,68.4374,89.2435,270.8695,0.00016584,2.352e-05,0.0,0 STARLINK-3906,1 52585U 22051BB  24089.23472187  .00002352  00000-0  16584-3 0  9991,2 52585  53.2171  68.4374 0001202  89.2435 270.8695 15.08837628104408,6917.888,95.438,540.584,538.921,0.0
52585.0,STARLINK-3906,PAYLOAD,2024-03-29 08:48:46,15.0883907,0.0001217,53.2174,67.8405,83.5271,276.586,0.00020661,3.002e-05,0.0,0 STARLINK-3906,1 52585U 22051BB  24089.36720175  .00003002  00000-0  20661-3 0  9992,2 52585  53.2174  67.8405 0001217  83.5271 276.5860 15.08839070104354,6917.883,95.438,540.59,538.906,0.0
52585.0,STARLINK-3906,PAYLOAD,2024-03-29 15:10:18,15.08839499,0.0001222,53.2171,66.6511,85.9729,274.1403,0.00014219,1.976e-05,0.0,0 STARLINK-3906,1 52585U 22051BB  24089.63216279  .00001976  00000-0  14219-3 0  9997,2 52585  53.2171  66.6511 0001222  85.9729 274.1403 15.08839499104392,6917.882,95.438,540.592,538.902,0.0
52585.0,STARLINK-3906,PAYLOAD,2024-03-30 05:28:46,15.08856726,0.0001232,53.2166,63.9762,98.8131,261.3001,-3.3319e-05,-8.18e-06,0.0,0 STARLINK-3906,1 52585U 22051BB  24090.22831020 -.00000818  00000-0 -33319-4 0  9990,2 52585  53.2166  63.9762 0001232  98.8131 261.3001 15.08856726104557,6917.829,95.436,540.547,538.842,0.0
52585.0,STARLINK-3906,PAYLOAD,2024-03-30 08:39:31,15.08859389,0.0001297,53.2167,63.3808,97.7775,262.3364,-6.1056e-07,-2.98e-06,0.0,0 STARLINK-3906,1 52585U 22051BB  24090.36078683 -.00000298  00000-0 -61056-6 0  9996,2 52585  53.2167  63.3808 0001297  97.7775 262.3364 15.08859389104502,6917.821,95.436,540.583,538.789,0.0
52585.0,STARLINK-3906,PAYLOAD,2024-03-30 21:22:38,15.08837565,0.000181,53.2171,61.0031,84.0217,276.0981,5.395e-05,5.71e-06,0.0,0 STARLINK-3906,1 52585U 22051BB  24090.89071868  .00000571  00000-0  53950-4 0  9996,2 52585  53.2171  61.0031 0001810  84.0217 276.0981 15.08837565104656,6917.888,95.438,541.005,538.501,0.0
52585.0,STARLINK-3906,PAYLOAD,2024-03-31 06:54:57,15.08839156,0.0001599,53.2194,59.2204,88.4554,271.6622,8.4223e-05,1.053e-05,0.0,0 STARLINK-3906,1 52585U 22051BB  24091.28816117  .00001053  00000-0  84223-4 0  9997,2 52585  53.2194  59.2204 0001599  88.4554 271.6622 15.08839156104648,6917.883,95.438,540.854,538.642,0.0
52585.0,STARLINK-3906,PAYLOAD,2024-03-31 14:51:52,15.08839726,0.00016,53.2197,57.7339,91.0156,269.1019,6.5944e-05,7.62e-06,0.0,0 STARLINK-3906,1 52585U 22051BB  24091.61936093  .00000762  00000-0  65944-4 0  9995,2 52585  53.2197  57.7339 0001600  91.0156 269.1019 15.08839726104694,6917.881,95.438,540.853,538.639,0.0
52585.0,STARLINK-3906,PAYLOAD,2024-04-01 01:59:34,15.08846903,0.0001515,53.2193,55.6516,95.4813,264.6352,0.00013794,1.908e-05,0.0,0 STARLINK-3906,1 52585U 22051BB  24092.08303497  .00001908  00000-0  13794-3 0  9991,2 52585  53.2193  55.6516 0001515  95.4813 264.6352 15.08846903104838,6917.859,95.437,540.772,538.676,0.0
52585.0,STARLINK-3906,PAYLOAD,2024-04-01 14:42:39,15.08848585,0.0001481,53.2171,53.2709,87.5061,272.61,0.00011063,1.474e-05,0.0,0 STARLINK-3906,1 52585U 22051BB  24092.61295274  .00001474  00000-0  11063-3 0  9998,2 52585  53.2171  53.2709 0001481  87.5061 272.6100 15.08848585104840,6917.854,95.437,540.744,538.695,0.0
52585.0,STARLINK-3906,PAYLOAD,2024-04-02 03:25:43,15.08853836,6.93e-05,53.2172,50.894,82.4766,277.6305,0.00031476,4.727e-05,0.0,0 STARLINK-3906,1 52585U 22051BB  24093.14286542  .00004727  00000-0  31476-3 0  9999,2 52585  53.2172  50.8940 0000693  82.4766 277.6305 15.08853836104994,6917.838,95.437,540.183,539.224,0.0
52585.0,STARLINK-3906,PAYLOAD,2024-04-02 06:36:29,15.08869095,0.0001213,53.2171,50.2962,91.6129,268.5002,0.000439,6.711e-05,0.0,0 STARLINK-3906,1 52585U 22051BB  24093.27533653  .00006711  00000-0  43900-3 0  9991,2 52585  53.2171  50.2962 0001213  91.6129 268.5002 15.08869095105016,6917.791,95.436,540.496,538.817,0.0
52585.0,STARLINK-3906,PAYLOAD,2024-04-02 14:33:25,15.08842479,0.0001259,53.2186,48.8095,94.8263,265.2873,2.3405e-05,8.5e-07,0.0,0 STARLINK-3906,1 52585U 22051BB  24093.60654844  .00000085  00000-0  23405-4 0  9991,2 52585  53.2186  48.8095 0001259  94.8263 265.2873 15.08842479104999,6917.873,95.437,540.609,538.867,0.0
52585.0,STARLINK-3906,PAYLOAD,2024-04-02 20:54:58,15.08838356,0.00025,53.2174,47.6213,87.5965,272.5314,-0.00012814,-2.327e-05,0.0,0 STARLINK-3906,1 52585U 22051BB  24093.87151297 -.00002327  00000-0 -12814-3 0  9998,2 52585  53.2174  47.6213 0002500  87.5965 272.5314 15.08838356105107,6917.885,95.438,541.48,538.021,0.0
52585.0,STARLINK-3906,PAYLOAD,2024-04-03 03:16:31,15.08826339,0.0001671,53.2177,46.4311,95.2424,264.8759,-0.00030282,-5.102e-05,0.0,0 STARLINK-3906,1 52585U 22051BB  24094.13647700 -.00005102  00000-0 -30282-3 0  9990,2 52585  53.2177  46.4311 0001671  95.2424 264.8759 15.08826339105149,6917.922,95.438,540.943,538.631,0.0
52585.0,STARLINK-3906,PAYLOAD,2024-04-03 14:24:13,15.08829691,0.0001698,53.2186,44.3495,95.6196,264.4989,-9.4497e-05,-1.791e-05,0.0,0 STARLINK-3906,1 52585U 22051BB  24094.60016018 -.00001791  00000-0 -94497-4 0  9993,2 52585  53.2186  44.3495 0001698  95.6196 264.4989 15.08829691105143,6917.912,95.438,540.952,538.602,0.0
52585.0,STARLINK-3906,PAYLOAD,2024-04-03 20:45:46,15.08833874,0.0001619,53.2175,43.16,95.5897,264.528,1.6996e-05,-1.8e-07,0.0,0 STARLINK-3906,1 52585U 22051BB  24094.86512040 -.00000018  00000-0  16996-4 0  9995,2 52585  53.2175  43.1600 0001619  95.5897 264.5280 15.08833874105251,6917.899,95.438,540.884,538.644,0.0
52585.0,STARLINK-3906,PAYLOAD,2024-04-04 06:18:05,15.08841266,0.0001696,53.2176,41.3761,95.6363,264.4822,0.0005172,7.953e-05,0.0,0 STARLINK-3906,1 52585U 22051BB  24095.26256274  .00007953  00000-0  51720-3 0  9991,2 52585  53.2176  41.3761 0001696  95.6363 264.4822 15.08841266105248,6917.877,95.437,540.915,538.568,0.0
52585.0,STARLINK-3906,PAYLOAD,2024-04-05 12:30:25,15.0884887,0.0001663,53.218,35.7255,89.5771,270.5411,0.00047589,7.296e-05,0.0,0 STARLINK-3906,1 52585U 22051BB  24096.52112355  .00007296  00000-0  47589-3 0  9990,2 52585  53.2180  35.7255 0001663  89.5771 270.5411 15.08848870105506,6917.853,95.437,540.869,538.568,0.0
52585.0,STARLINK-3906,PAYLOAD,2024-04-05 20:27:20,15.08843651,0.0001883,53.2195,34.2398,89.5553,270.5655,0.00030273,4.534e-05,0.0,0 STARLINK-3906,1 52585U 22051BB  24096.85232456  .00004534  00000-0  30273-3 0  9995,2 52585  53.2195  34.2398 0001883  89.5553 270.5655 15.08843651105485,6917.869,95.437,541.037,538.432,0.0
52585.0,STARLINK-3906,PAYLOAD,2024-04-06 12:21:11,15.08846693,0.0001286,53.2164,31.2651,78.1235,281.9902,0.00031356,4.707e-05,0.0,0 STARLINK-3906,1 52585U 22051BB  24097.51472136  .00004707  00000-0  31356-3 0  9995,2 52585  53.2164  31.2651 0001286  78.1235 281.9902 15.08846693105657,6917.86,95.437,540.615,538.835,0.0
